STARLINK-36802
1 67985U 26038AA  26092.83335647 -.01891985  00000+0 -30583-1 0  9994
2 67985  97.2836 104.3369 0001977  78.4465  63.3812 15.56201033  5976
STARLINK-36937
1 68113U 26044N   26092.83335647 -.01897041  00000+0 -30638-1 0  9995
2 68113  97.2856  54.1178 0001885  90.0313  58.9188 15.56234791  5234
